STARLINK-2022           
1 47643U 21012Z   24245.55669781 -.00009130  00000+0 -59512-3 0  9993
2 47643  53.0532  19.2168 0001025  63.7805 296.3290 15.06382357196229
